NORAD_CAT_ID,OBJECT_NAME,OBJECT_TYPE,EPOCH,MEAN_MOTION,ECCENTRICITY,INCLINATION,RA_OF_ASC_NODE,ARG_OF_PERICENTER,MEAN_ANOMALY,BSTAR,MEAN_MOTION_DOT,MEAN_MOTION_DDOT,TLE_LINE0,TLE_LINE1,TLE_LINE2,SEMIMAJOR_AXIS,PERIOD,APOGEE,PERIGEE,DECAYED
52677.0,STARLINK-4028,PAYLOAD,2022-06-14 22:00:00,15.73123627,0.0002412,53.2139,161.8109,12.9892,42.2793,0.00047613,0.00066518,0.0,0 STARLINK-4028,1 52677U 22053X   22165.91667824  .00066518  00000-0  47613-3 0  9998,2 52677  53.2139 161.8109 0002412  12.9892  42.2793 15.73123627  4646,6728.113,91.538,351.601,348.355,0.0
52677.0,STARLINK-4028,PAYLOAD,2022-06-15 14:00:01,15.73216314,0.0002633,53.2135,158.5137,12.8169,220.2202,0.0001174,0.00015899,0.0,0 STARLINK-4028,1 52677U 22053X   22166.58334491  .00015899  00000-0  11740-3 0  9991,2 52677  53.2135 158.5137 0002633  12.8169 220.2202 15.73216314  1306,6727.849,91.532,351.485,347.94199999999995,0.0
52677.0,STARLINK-4028,PAYLOAD,2022-06-15 22:00:00,15.73255019,0.000243,53.214,156.8623,17.213,304.7866,-0.00012394,-0.00018023,0.0,0 STARLINK-4028,1 52677U 22053X   22166.91667824 -.00018023  00000-0 -12394-3 0  9997,2 52677  53.2140 156.8623 0002430  17.2130 304.7866 15.73255019  4802,6727.738,91.53,351.23800000000006,347.968,0.0
52677.0,STARLINK-4028,PAYLOAD,2022-06-16 02:00:01,15.73265282,0.0002505,53.2144,156.0385,18.9584,167.5444,-0.00022804,-0.00032597,0.0,0 STARLINK-4028,1 52677U 22053X   22167.08334491 -.00032597  00000-0 -22804-3 0  9996,2 52677  53.2144 156.0385 0002505  18.9584 167.5444 15.73265282  1309,6727.709,91.529,351.259,347.889,0.0
52677.0,STARLINK-4028,PAYLOAD,2022-06-19 14:00:01,15.73258841,0.0002406,53.2139,138.7193,15.2825,204.9715,-0.00052326,-0.00073614,0.0,0 STARLINK-4028,1 52677U 22053X   22170.58334491 -.00073614  00000-0 -52326-3 0  9992,2 52677  53.2139 138.7193 0002406  15.2825 204.9715 15.73258841  1305,6727.727,91.53,351.211,347.974,0.0
52677.0,STARLINK-4028,PAYLOAD,2022-06-19 22:00:00,15.73185841,0.0002223,53.2143,137.0687,16.2055,293.0148,0.00050282,0.00070503,0.0,0 STARLINK-4028,1 52677U 22053X   22170.91667824  .00070503  00000-0  50282-3 0  9999,2 52677  53.2143 137.0687 0002223  16.2055 293.0148 15.73185841  1301,6727.936,91.534,351.296,348.305,0.0
52677.0,STARLINK-4028,PAYLOAD,2022-06-20 06:00:00,15.73245788,0.0002543,53.2144,135.4213,17.5601,20.5961,-0.00044501,-0.00062745,0.0,0 STARLINK-4028,1 52677U 22053X   22171.25001157 -.00062745  00000-0 -44501-3 0  9996,2 52677  53.2144 135.4213 0002543  17.5601  20.5961 15.73245788  5481,6727.765,91.531,351.341,347.9190000000001,0.0
52677.0,STARLINK-4028,PAYLOAD,2022-06-20 14:00:01,15.73211594,0.0002531,53.2142,133.7704,22.9584,104.1555,-0.00053856,-0.00075581,0.0,0 STARLINK-4028,1 52677U 22053X   22171.58334491 -.00075581  00000-0 -53856-3 0  9997,2 52677  53.2142 133.7704 0002531  22.9584 104.1555 15.73211594  1305,6727.861999999999,91.533,351.43,348.024,0.0
52677.0,STARLINK-4028,PAYLOAD,2022-06-20 22:00:00,15.73204304,0.0002368,53.2177,132.1215,18.5284,197.4143,9.1952e-06,6.69e-06,0.0,0 STARLINK-4028,1 52677U 22053X   22171.91667824  .00000669  00000-0  91952-5 0  9997,2 52677  53.2177 132.1215 0002368  18.5284 197.4143 15.73204304  1308,6727.8830000000025,91.533,351.341,348.155,0.0
52677.0,STARLINK-4028,PAYLOAD,2022-06-21 06:00:00,15.73226809,0.0002609,53.2138,130.4726,25.3723,279.6583,-0.00028252,-0.00040136,0.0,0 STARLINK-4028,1 52677U 22053X   22172.25001157 -.00040136  00000-0 -28252-3 0  9992,2 52677  53.2138 130.4726 0002609  25.3723 279.6583 15.73226809  5641,6727.819,91.532,351.439,347.92800000000005,0.0
52677.0,STARLINK-4028,PAYLOAD,2022-06-21 14:00:01,15.73208686,0.000235,53.2134,128.8215,21.9118,12.056,-3.2582e-05,-5.194e-05,0.0,0 STARLINK-4028,1 52677U 22053X   22172.58334491 -.00005194  00000-0 -32582-4 0  9995,2 52677  53.2134 128.8215 0002350  21.9118  12.0560 15.73208686  1300,6727.87,91.533,351.316,348.154,0.0
52677.0,STARLINK-4028,PAYLOAD,2022-06-21 22:00:00,15.73207731,0.0002142,53.2137,127.1713,21.2776,101.6225,-0.00022092,-0.00031523,0.0,0 STARLINK-4028,1 52677U 22053X   22172.91667824 -.00031523  00000-0 -22092-3 0  9990,2 52677  53.2137 127.1713 0002142  21.2776 101.6225 15.73207731  5745,6727.873000000001,91.533,351.17900000000014,348.297,0.0
52677.0,STARLINK-4028,PAYLOAD,2022-06-22 14:00:01,15.73171214,0.0002212,53.2137,123.8726,13.093,287.5988,0.00019422,0.00026691,0.0,0 STARLINK-4028,1 52677U 22053X   22173.58334491  .00026691  00000-0  19422-3 0  9996,2 52677  53.2137 123.8726 0002212  13.0930 287.5988 15.73171214  1305,6727.977,91.535,351.33,348.35400000000016,0.0
52677.0,STARLINK-4028,PAYLOAD,2022-06-22 22:00:00,15.73213674,0.0002163,53.2137,122.2228,17.079,12.5114,0.00021833,0.0003015,0.0,0 STARLINK-4028,1 52677U 22053X   22173.91667824  .00030150  00000-0  21833-3 0  9996,2 52677  53.2137 122.2228 0002163  17.0790  12.5114 15.73213674  5902,6727.856,91.532,351.176,348.266,0.0
52677.0,STARLINK-4028,PAYLOAD,2022-06-23 14:00:01,15.73212523,0.0002336,53.2141,118.9236,26.1306,181.3797,-0.00046129,-0.00064907,0.0,0 STARLINK-4028,1 52677U 22053X   22174.58334491 -.00064907  00000-0 -46129-3 0  9995,2 52677  53.2141 118.9236 0002336  26.1306 181.3797 15.73212523  6011,6727.859,91.532,351.296,348.153,0.0
52677.0,STARLINK-4028,PAYLOAD,2022-06-23 22:00:00,15.73166248,0.0002148,53.2164,117.2736,26.715,269.8087,-0.0011775,-0.00162511,0.0,0 STARLINK-4028,1 52677U 22053X   22174.91667824 -.00162511  00000-0 -11775-2 0  9999,2 52677  53.2164 117.2736 0002148  26.7150 269.8087 15.73166248  6068,6727.991,91.535,351.302,348.411,0.0
52677.0,STARLINK-4028,PAYLOAD,2022-06-24 04:00:00,15.732068,0.000245,53.2153,116.0384,27.5563,245.634,-0.00046159,-0.00064934,0.0,0 STARLINK-4028,1 52677U 22053X   22175.16667824 -.00064934  00000-0 -46159-3 0  9992,2 52677  53.2153 116.0384 0002450  27.5563 245.6340 15.73206800  6103,6727.876,91.533,351.389,348.092,0.0
52677.0,STARLINK-4028,PAYLOAD,2022-06-24 14:00:01,15.73155838,0.000223,53.2157,113.9749,24.5651,89.7539,0.00028798,0.00039914,0.0,0 STARLINK-4028,1 52677U 22053X   22175.58334491  .00039914  00000-0  28798-3 0  9996,2 52677  53.2157 113.9749 0002230  24.5651  89.7539 15.73155838  6166,6728.021,91.536,351.386,348.386,0.0
52677.0,STARLINK-4028,PAYLOAD,2022-06-24 22:00:01,15.73197319,0.000224,53.2157,112.3256,28.234,175.0303,0.00012254,0.0001661,0.0,0 STARLINK-4028,1 52677U 22053X   22175.91668981  .00016610  00000-0  12254-3 0  9995,2 52677  53.2157 112.3256 0002240  28.2340 175.0303 15.73197319  1308,6727.903,91.533,351.275,348.261,0.0
52677.0,STARLINK-4028,PAYLOAD,2022-06-25 14:00:01,15.73186331,0.0002056,53.2152,109.0263,23.5336,357.5629,0.00019423,0.0002671,0.0,0 STARLINK-4028,1 52677U 22053X   22176.58334491  .00026710  00000-0  19423-3 0  9992,2 52677  53.2152 109.0263 0002056  23.5336 357.5629 15.73186331  6329,6727.934,91.534,351.182,348.416,0.0
52677.0,STARLINK-4028,PAYLOAD,2022-06-25 22:00:00,15.73229195,0.000205,53.2156,107.3771,24.2159,85.8012,0.00014682,0.0002006,0.0,0 STARLINK-4028,1 52677U 22053X   22176.91667824  .00020060  00000-0  14682-3 0  9992,2 52677  53.2156 107.3771 0002050  24.2159  85.8012 15.73229195  1309,6727.812,91.531,351.056,348.298,0.0
52677.0,STARLINK-4028,PAYLOAD,2022-06-26 14:00:01,15.73238047,0.0002071,53.2161,104.0776,23.6352,264.4551,-0.00037201,-0.00052595,0.0,0 STARLINK-4028,1 52677U 22053X   22177.58335648 -.00052595  00000-0 -37201-3 0  9994,2 52677  53.2161 104.0776 0002071  23.6352 264.4551 15.73238047  6488,6727.7869999999975,91.531,351.045,348.2580000000001,0.0
52677.0,STARLINK-4028,PAYLOAD,2022-06-26 22:00:00,15.73196281,0.0002176,53.2161,102.4286,30.5943,346.3811,-7.3644e-05,-0.00010943,0.0,0 STARLINK-4028,1 52677U 22053X   22177.91667824 -.00010943  00000-0 -73644-4 0  9998,2 52677  53.2161 102.4286 0002176  30.5943 346.3811 15.73196281  1303,6727.906,91.533,351.235,348.307,0.0
52677.0,STARLINK-4028,PAYLOAD,2022-06-27 14:00:01,15.73206017,0.0002094,53.2174,99.1296,25.2648,169.3629,-1.2428e-05,-2.366e-05,0.0,0 STARLINK-4028,1 52677U 22053X   22178.58334491 -.00002366  00000-0 -12428-4 0  9996,2 52677  53.2174  99.1296 0002094  25.2648 169.3629 15.73206017  1301,6727.878000000002,91.533,351.152,348.334,0.0
52677.0,STARLINK-4028,PAYLOAD,2022-06-27 20:00:01,15.73323845,0.0002172,53.2165,97.8917,31.4929,140.0334,-0.0029306,-0.00395349,0.0,0 STARLINK-4028,1 52677U 22053X   22178.83335648 -.00395349  00000-0 -29306-2 0  9996,2 52677  53.2165  97.8917 0002172  31.4929 140.0334 15.73323845  6677,6727.542,91.526,350.86800000000005,347.946,0.0
52677.0,STARLINK-4028,PAYLOAD,2022-06-27 22:00:00,15.73175841,0.0002258,53.2169,97.4799,33.5077,250.2271,-0.0013254,-0.00182496,0.0,0 STARLINK-4028,1 52677U 22053X   22178.91667824 -.00182496  00000-0 -13254-2 0  9991,2 52677  53.2169  97.4799 0002258  33.5077 250.2271 15.73175841  1307,6727.964,91.535,351.348,348.31,0.0
52677.0,STARLINK-4028,PAYLOAD,2022-06-28 06:00:00,15.73151856,0.0002147,53.216,95.8326,19.9682,352.6789,0.00014241,0.00019372,0.0,0 STARLINK-4028,1 52677U 22053X   22179.25001157  .00019372  00000-0  14241-3 0  9998,2 52677  53.2160  95.8326 0002147  19.9682 352.6789 15.73151856  6747,6728.031999999997,91.536,351.342,348.45300000000015,0.0
52677.0,STARLINK-4028,PAYLOAD,2022-06-28 14:00:01,15.73125564,0.000191,53.2164,94.1812,20.0231,81.4915,0.00047325,0.00066112,0.0,0 STARLINK-4028,1 52677U 22053X   22179.58334491  .00066112  00000-0  47325-3 0  9997,2 52677  53.2164  94.1812 0001910  20.0231  81.4915 15.73125564  1305,6728.107,91.538,351.25699999999995,348.68699999999984,0.0
52677.0,STARLINK-4028,PAYLOAD,2022-06-28 22:00:00,15.73187528,0.0002037,53.2164,92.5328,22.6921,167.6905,1.8472e-05,1.971e-05,0.0,0 STARLINK-4028,1 52677U 22053X   22179.91667824  .00001971  00000-0  18472-4 0  9997,2 52677  53.2164  92.5328 0002037  22.6921 167.6905 15.73187528  1308,6727.931,91.534,351.166,348.425,0.0
